NORAD_CAT_ID,OBJECT_NAME,OBJECT_TYPE,EPOCH,MEAN_MOTION,ECCENTRICITY,INCLINATION,RA_OF_ASC_NODE,ARG_OF_PERICENTER,MEAN_ANOMALY,BSTAR,MEAN_MOTION_DOT,MEAN_MOTION_DDOT,TLE_LINE0,TLE_LINE1,TLE_LINE2,SEMIMAJOR_AXIS,PERIOD,APOGEE,PERIGEE,DECAYED
53529.0,STARLINK-4478,PAYLOAD,2022-09-21 14:00:01,15.36918098,0.0001571999999999,53.2172,354.6514,48.8801,63.0948,-0.0341879999999999,-0.01142826,0.0,0 STARLINK-4478,1 53529U 22101C   22264.58334491 -.01142826  00000-0 -34188-1 0  9994,2 53529  53.2172 354.6514 0001572  48.8801  63.0948 15.36918098  5159,6833.366,93.694,456.305,454.157,0.0
53529.0,STARLINK-4478,PAYLOAD,2022-09-21 22:00:00,15.36103113,0.0001528,53.2173,353.0843,53.2114,103.6003,-0.034547,-0.01126209,0.0,0 STARLINK-4478,1 53529U 22101C   22264.91667824 -.01126209  00000-0 -34547-1 0  9996,2 53529  53.2173 353.0843 0001528  53.2114 103.6003 15.36103113  1306,6835.783,93.744,458.692,456.603,0.0
53529.0,STARLINK-4478,PAYLOAD,2022-09-22 14:00:01,15.34495873,0.0001664,53.217,349.9642,50.1641,193.4092,-0.036247,-0.01122423,0.0,0 STARLINK-4478,1 53529U 22101C   22265.58334491 -.01122423  00000-0 -36247-1 0  9994,2 53529  53.2170 349.9642 0001664  50.1641 193.4092 15.34495873  1306,6840.555,93.842,463.559,461.282,0.0
53529.0,STARLINK-4478,PAYLOAD,2022-09-22 22:00:00,15.33733393,0.000165,53.2166,348.4043,42.7735,242.7169,-0.039229,-0.01179887,0.0,0 STARLINK-4478,1 53529U 22101C   22265.91667824 -.01179887  00000-0 -39229-1 0  9999,2 53529  53.2166 348.4043 0001650  42.7735 242.7169 15.33733393  1300,6842.821999999999,93.889,465.816,463.5580000000001,0.0
53529.0,STARLINK-4478,PAYLOAD,2022-09-23 14:00:01,15.3208924,0.0001665999999999,53.2174,345.2922,37.1555,329.3283,-0.039285,-0.0112652999999999,0.0,0 STARLINK-4478,1 53529U 22101C   22266.58334491 -.01126530  00000-0 -39285-1 0  9993,2 53529  53.2174 345.2922 0001666  37.1555 329.3283 15.32089240  1308,6847.717,93.989,470.723,468.441,0.0
53529.0,STARLINK-4478,PAYLOAD,2022-09-23 22:00:00,15.31285476,0.0001406999999999,53.2174,343.7379,47.9289,357.5965,-0.040247,-0.01125342,0.0,0 STARLINK-4478,1 53529U 22101C   22266.91667824 -.01125342  00000-0 -40247-1 0  9999,2 53529  53.2174 343.7379 0001407  47.9289 357.5965 15.31285476  1301,6850.113,94.039,472.942,471.014,0.0
53529.0,STARLINK-4478,PAYLOAD,2022-09-24 14:00:01,15.2967857,0.0001848,53.2175,340.639,39.1426,81.6319,-0.04222,-0.01123061,0.0,0 STARLINK-4478,1 53529U 22101C   22267.58335648 -.01123061  00000-0 -42220-1 0  9998,2 53529  53.2175 340.6390 0001848  39.1426  81.6319 15.29678570  5610,6854.909000000002,94.137,478.041,475.508,0.0
53529.0,STARLINK-4478,PAYLOAD,2022-09-24 22:00:00,15.28876069,0.0001757,53.2174,339.0904,42.5798,114.2774,-0.043297,-0.01123365,0.0,0 STARLINK-4478,1 53529U 22101C   22267.91667824 -.01123365  00000-0 -43297-1 0  9991,2 53529  53.2174 339.0904 0001757  42.5798 114.2774 15.28876069  1303,6857.308000000001,94.187,480.378,477.968,0.0
53529.0,STARLINK-4478,PAYLOAD,2022-09-25 14:00:01,15.27268107,0.0001709,53.2175,336.0029,48.0856,178.1684,-0.045308,-0.01119184,0.0,0 STARLINK-4478,1 53529U 22101C   22268.58334491 -.01119184  00000-0 -45308-1 0  9995,2 53529  53.2175 336.0029 0001709  48.0856 178.1684 15.27268107  5762,6862.12,94.286,485.158,482.812,0.0
53529.0,STARLINK-4478,PAYLOAD,2022-09-25 22:00:01,15.2646828,0.0001571,53.2175,334.4597,48.8043,210.7646,-0.046675,-0.01124585,0.0,0 STARLINK-4478,1 53529U 22101C   22268.91668981 -.01124585  00000-0 -46675-1 0  9995,2 53529  53.2175 334.4597 0001571  48.8043 210.7646 15.26468280  1307,6864.517,94.335,487.46,485.304,0.0
53529.0,STARLINK-4478,PAYLOAD,2022-09-26 10:00:00,15.25260795,0.0001785,53.2171,332.1523,44.67,82.9037,-0.0482,-0.01120015,0.0,0 STARLINK-4478,1 53529U 22101C   22269.41667824 -.01120015  00000-0 -48200-1 0  9996,2 53529  53.2171 332.1523 0001785  44.6700  82.9037 15.25260795  5899,6868.139,94.41,491.23,488.778,0.0
53529.0,STARLINK-4478,PAYLOAD,2022-09-26 14:00:01,15.24860079,0.0001561,53.2174,331.3838,44.458,278.6551,-0.048789,-0.01120007,0.0,0 STARLINK-4478,1 53529U 22101C   22269.58334491 -.01120007  00000-0 -48789-1 0  9998,2 53529  53.2174 331.3838 0001561  44.4580 278.6551 15.24860079  1305,6869.343000000003,94.435,492.28,490.135,0.0
53529.0,STARLINK-4478,PAYLOAD,2022-09-26 22:00:00,15.240580599999998,0.0001481,53.217,329.847,43.0886,310.3819,-0.050104,-0.01137336,0.0,0 STARLINK-4478,1 53529U 22101C   22269.91667824 -.01137336  00000-0 -50104-1 0  9991,2 53529  53.2170 329.8470 0001481  43.0886 310.3819 15.24058060  1300,6871.752,94.485,494.635,492.6,0.0
53529.0,STARLINK-4478,PAYLOAD,2022-09-27 06:00:00,15.232875699999996,0.0001559,53.2166,328.3134,45.29,337.5546,-0.053319,-0.01179206,0.0,0 STARLINK-4478,1 53529U 22101C   22270.25001157 -.01179206  00000-0 -53319-1 0  9994,2 53529  53.2166 328.3134 0001559  45.2900 337.5546 15.23287570  6024,6874.069,94.532,497.006,494.86300000000006,0.0
53529.0,STARLINK-4478,PAYLOAD,2022-09-27 14:00:01,15.2245015,0.0001674,53.2174,326.7816,39.4667,11.8232,-0.0523559999999999,-0.0113312999999999,0.0,0 STARLINK-4478,1 53529U 22101C   22270.58334491 -.01133130  00000-0 -52356-1 0  9996,2 53529  53.2174 326.7816 0001674  39.4667  11.8232 15.22450150  1300,6876.59,94.584,499.606,497.304,0.0
53529.0,STARLINK-4478,PAYLOAD,2022-09-27 22:00:01,15.21648083,0.0001512,53.2175,325.2495,47.4716,31.345,-0.053698,-0.01134704,0.0,0 STARLINK-4478,1 53529U 22101C   22270.91668981 -.01134704  00000-0 -53698-1 0  9995,2 53529  53.2175 325.2495 0001512  47.4716  31.3450 15.21648083  1305,6879.005999999999,94.634,501.911,499.831,0.0
53529.0,STARLINK-4478,PAYLOAD,2022-09-28 06:00:00,15.2084759,0.0001771,53.2164,323.7225,43.383,61.8656,-0.055157,-0.01138103,0.0,0 STARLINK-4478,1 53529U 22101C   22271.25001157 -.01138103  00000-0 -55157-1 0  9998,2 53529  53.2164 323.7225 0001771  43.3830  61.8656 15.20847590  6175,6881.42,94.684,504.503,502.066,0.0
53529.0,STARLINK-4478,PAYLOAD,2022-09-28 14:00:01,15.20038879,0.0001888,53.2173,322.1963,38.8368,91.9468,-0.055974,-0.01128642,0.0,0 STARLINK-4478,1 53529U 22101C   22271.58334491 -.01128642  00000-0 -55974-1 0  9998,2 53529  53.2173 322.1963 0001888  38.8368  91.9468 15.20038879  1308,6883.86,94.734,507.025,504.426,0.0
53529.0,STARLINK-4478,PAYLOAD,2022-09-28 22:00:00,15.19238217,0.0001794,53.2174,320.6699,42.2433,113.1084,-0.0574919999999999,-0.01132126,0.0,0 STARLINK-4478,1 53529U 22101C   22271.91667824 -.01132126  00000-0 -57492-1 0  9993,2 53529  53.2174 320.6699 0001794  42.2433 113.1084 15.19238217  1303,6886.279,94.784,509.379,506.908,0.0
53529.0,STARLINK-4478,PAYLOAD,2022-09-29 06:00:00,15.18443151,0.0001911999999999,53.2167,319.1484,39.8655,139.0846,-0.059461,-0.01143227,0.0,0 STARLINK-4478,1 53529U 22101C   22272.25001157 -.01143227  00000-0 -59461-1 0  9994,2 53529  53.2167 319.1484 0001912  39.8655 139.0846 15.18443151  6324,6888.682,94.834,511.864,509.23,0.0
53529.0,STARLINK-4478,PAYLOAD,2022-09-29 14:00:01,15.1763435,0.0001792,53.2166,317.6296,46.3601,155.2291,-0.060278,-0.01132913,0.0,0 STARLINK-4478,1 53529U 22101C   22272.58334491 -.01132913  00000-0 -60278-1 0  9998,2 53529  53.2166 317.6296 0001792  46.3601 155.2291 15.17634350  1306,6891.129,94.885,514.229,511.76,0.0
53529.0,STARLINK-4478,PAYLOAD,2022-09-29 22:00:00,15.16829099,0.0001646,53.2174,316.107,49.977,173.2897,-0.061576,-0.01130878,0.0,0 STARLINK-4478,1 53529U 22101C   22272.91667824 -.01130878  00000-0 -61576-1 0  9994,2 53529  53.2174 316.1070 0001646  49.9770 173.2897 15.16829099  1300,6893.568,94.935,516.568,514.298,0.0
53529.0,STARLINK-4478,PAYLOAD,2022-09-30 06:00:02,15.16060689,0.0001575999999999,53.2166,314.5916,56.0987,187.9211,-0.065771,-0.01177551,0.0,0 STARLINK-4478,1 53529U 22101C   22273.25002315 -.01177551  00000-0 -65771-1 0  9990,2 53529  53.2166 314.5916 0001576  56.0987 187.9211 15.16060689  6470,6895.897,94.983,518.849,516.675,0.0
53529.0,STARLINK-4478,PAYLOAD,2022-09-30 14:00:01,15.15227215,0.0001678,53.2165,313.078,48.8955,214.8191,-0.064717,-0.01134932,0.0,0 STARLINK-4478,1 53529U 22101C   22273.58334491 -.01134932  00000-0 -64717-1 0  9994,2 53529  53.2165 313.0780 0001678  48.8955 214.8191 15.15227215  1302,6898.426,95.035,521.448,519.133,0.0
53529.0,STARLINK-4478,PAYLOAD,2022-09-30 22:00:00,15.14419741,0.000154,53.2174,311.561,49.6472,232.8515,-0.065888,-0.01129631,0.0,0 STARLINK-4478,1 53529U 22101C   22273.91667824 -.01129631  00000-0 -65888-1 0  9990,2 53529  53.2174 311.5610 0001540  49.6472 232.8515 15.14419741  1304,6900.878000000002,95.086,523.805,521.68,0.0
53529.0,STARLINK-4478,PAYLOAD,2022-10-01 14:00:01,15.12818803,0.0001716,53.2165,308.543,43.1777,273.9794,-0.069273,-0.01134733,0.0,0 STARLINK-4478,1 53529U 22101C   22274.58334491 -.01134733  00000-0 -69273-1 0  9996,2 53529  53.2165 308.5430 0001716  43.1777 273.9794 15.12818803  1307,6905.745,95.187,528.795,526.425,0.0
53529.0,STARLINK-4478,PAYLOAD,2022-10-01 22:00:00,15.1201452,0.0001730999999999,53.2171,307.0325,38.6048,294.4404,-0.070884,-0.0113516,0.0,0 STARLINK-4478,1 53529U 22101C   22274.91667824 -.01135160  00000-0 -70884-1 0  9997,2 53529  53.2171 307.0325 0001731  38.6048 294.4404 15.12014520  1308,6908.194,95.237,531.255,528.863,0.0
53529.0,STARLINK-4478,PAYLOAD,2022-10-02 14:00:01,15.10431426,0.0001584,53.2165,304.0254,41.33600000000001,320.5701,-0.076227,-0.0116536,0.0,0 STARLINK-4478,1 53529U 22101C   22275.58334491 -.01165360  00000-0 -76227-1 0  9994,2 53529  53.2165 304.0254 0001584  41.3360 320.5701 15.10431426  1300,6913.02,95.337,535.98,533.79,0.0
53529.0,STARLINK-4478,PAYLOAD,2022-10-02 22:00:00,15.09472137,0.0001471,53.2173,302.5208,41.1071,333.8244,-0.045989,-0.00694932,0.0,0 STARLINK-4478,1 53529U 22101C   22275.91667824 -.00694932  00000-0 -45989-1 0  9992,2 53529  53.2173 302.5208 0001471  41.1071 333.8244 15.09472137  1304,6915.949000000001,95.398,538.831,536.797,0.0
